{
  "users": [
    {
      "name": "nardner",
      "street": "mdu",
      "city": "rohtak",
      "state": "harayna",
      "zipcode": "1240001",
      "id": 14
    },
    {
      "name": "aman",
      "street": "dlf",
      "city": "rohtak",
      "state": "haryana",
      "zipcode": "1240005",
      "id": 15
    },
    {
      "name": "Narender Bisht",
      "street": "hno.27 type-1 mdu campus rohtak",
      "city": "Rohtak",
      "state": "Haryana",
      "zipcode": "124001",
      "id": 16
    },
    {
      "name": "Narender Bisht",
      "street": "hno.27 type-1 mdu campus rohtak",
      "city": "Rohtak",
      "state": "Haryana",
      "zipcode": "124001",
      "id": 17
    },
    {
      "name": "Narender Bisht",
      "street": "hno.27 type-1 mdu campus rohtak",
      "city": "Rohtak",
      "state": "Haryana",
      "zipcode": "124001",
      "id": 18
    },
    {
      "name": "Narender Bisht",
      "street": "hno.27 type-1 mdu campus rohtak",
      "city": "Rohtak",
      "state": "Haryana",
      "zipcode": "124001",
      "id": 19
    },
    {
      "name": "Narender Bisht",
      "street": "hno.27 type-1 mdu campus rohtak",
      "city": "Rohtak",
      "state": "Haryana",
      "zipcode": "124001",
      "id": 20
    },
    {
      "name": "Narender Bisht",
      "street": "hno.27 type-1 mdu campus rohtak",
      "city": "Rohtak",
      "state": "Haryana",
      "zipcode": "124001",
      "id": 21
    },
    {
      "name": "adas",
      "street": "dasdas",
      "city": "asdsa",
      "state": "asdas",
      "zipcode": "dasda",
      "id": 22
    },
    {
      "name": "Narender Bisht",
      "street": "hno.27 type-1 mdu campus rohtak",
      "city": "Rohtak",
      "state": "Haryana",
      "zipcode": "124001",
      "id": 23
    }
  ]
}